{"type": "FeatureCollection", "features": [ {"type": "Feature", "properties": {"norad_id": 66520, "name": "STARLINK-35952", "group": "last-30-days", "lat": 10.130871033706018, "lon": -86.23094871926023, "alt_km": 343.5146601982942, "timestamp": "2025-12-04T03:47:53.336228+00:00", "meta": {"OBJECT_NAME": "STARLINK-35952", "OBJECT_ID": "2025-265E", "EPOCH": "2025-12-03T20:00:01.999008", "MEAN_MOTION": 15.7518898, "ECCENTRICITY": 0.0001471, "INCLINATION": 42.9995, "RA_OF_ASC_NODE": 106.7962, "ARG_OF_PERICENTER": 282.333, "MEAN_ANOMALY": 198.1071, "EPHEMERIS_TYPE": 0, "CLASSIFICATION_TYPE": "U", "NORAD_CAT_ID": 66520, "ELEMENT_SET_NO": 999, "REV_AT_EPOCH": 356, "BSTAR": -0.0020017, "MEAN_MOTION_DOT": -0.00299272, "MEAN_MOTION_DDOT": 0}, "tle": {"line1": "1 66520U 25265E   25337.83335647 -.00299272  00000+0 -20017-2 0  9992", "line2": "2 66520  42.9995 106.7962 0001471 282.3330 198.1071 15.75188980  3567"}}, "geometry": {"type": "Point", "coordinates": [-86.23094871926023, 10.130871033706018]}}, {"type": "Feature", "properties": {"norad_id": 66521, "name": "STARLINK-35915", "group": "last-30-days", "lat": 8.877128551898561, "lon": -84.82941128295549, "alt_km": 343.67886861140687, "timestamp": "2025-12-04T03:47:53.336238+00:00", "meta": {"OBJECT_NAME": "STARLINK-35915", "OBJECT_ID": "2025-265F", "EPOCH": "2025-12-03T20:00:01.999008", "MEAN_MOTION": 15.75123954, "ECCENTRICITY": 0.0001558, "INCLINATION": 42.9996, "RA_OF_ASC_NODE": 106.7914, "ARG_OF_PERICENTER": 277.9729, "MEAN_ANOMALY": 204.3875, "EPHEMERIS_TYPE": 0, "CLASSIFICATION_TYPE": "U", "NORAD_CAT_ID": 66521, "ELEMENT_SET_NO": 999, "REV_AT_EPOCH": 356, "BSTAR": -0.0015559, "MEAN_MOTION_DOT": -0.00233846, "MEAN_MOTION_DDOT": 0}, "tle": {"line1": "1 66521U 25265F   25337.83335647 -.00233846  00000+0 -15559-2 0  9993", "line2": "2 66521  42.9996 106.7914 0001558 277.9729 204.3875 15.75123954  3566"}}, "geometry": {"type": "Point", "coordinates": [-84.82941128295549, 8.877128551898561]}}, {"type": "Feature", "properties": {"norad_id": 66522, "name": "STARLINK-35946", "group": "last-30-days", "lat": 7.556509107309257, "lon": -83.3697294867625, "alt_km": 343.8733608529319, "timestamp": "2025-12-04T03:47:53.336250+00:00", "meta": {"OBJECT_NAME": "STARLINK-35946", "OBJECT_ID": "2025-265G", "EPOCH": "2025-12-03T20:00:01.999008", "MEAN_MOTION": 15.75184701, "ECCENTRICITY": 0.000155, "INCLINATION": 42.9995, "RA_OF_ASC_NODE": 106.7866, "ARG_OF_PERICENTER": 280.6002, "MEAN_ANOMALY": 203.6828, "EPHEMERIS_TYPE": 0, "CLASSIFICATION_TYPE": "U", "NORAD_CAT_ID": 66522, "ELEMENT_SET_NO": 999, "REV_AT_EPOCH": 356, "BSTAR": -0.0021301, "MEAN_MOTION_DOT": -0.00317699, "MEAN_MOTION_DDOT": 0}, "tle": {"line1": "1 66522U 25265G   25337.83335647 -.00317699  00000+0 -21301-2 0  9995", "line2": "2 66522  42.9995 106.7866 0001550 280.6002 203.6828 15.75184701  3566"}}, "geometry": {"type": "Point", "coordinates": [-83.3697294867625, 7.556509107309257]}}, {"type": "Feature", "properties": {"norad_id": 66523, "name": "STARLINK-35969", "group": "last-30-days", "lat": 6.256468058323581, "lon": -81.94689920807123, "alt_km": 343.7671031449545, "timestamp": "2025-12-04T03:47:53.336260+00:00", "meta": {"OBJECT_NAME": "STARLINK-35969", "OBJECT_ID": "2025-265H", "EPOCH": "2025-12-03T20:00:01.999008", "MEAN_MOTION": 15.75185806, "ECCENTRICITY": 8.68e-05, "INCLINATION": 42.9998, "RA_OF_ASC_NODE": 106.7815, "ARG_OF_PERICENTER": 272.6807, "MEAN_ANOMALY": 213.5153, "EPHEMERIS_TYPE": 0, "CLASSIFICATION_TYPE": "U", "NORAD_CAT_ID": 66523, "ELEMENT_SET_NO": 999, "REV_AT_EPOCH": 356, "BSTAR": -0.0020989, "MEAN_MOTION_DOT": -0.00313188, "MEAN_MOTION_DDOT": 0}, "tle": {"line1": "1 66523U 25265H   25337.83335647 -.00313188  00000+0 -20989-2 0  9996", "line2": "2 66523  42.9998 106.7815 0000868 272.6807 213.5153 15.75185806  3567"}}, "geometry": {"type": "Point", "coordinates": [-81.94689920807123, 6.256468058323581]}}, {"type": "Feature", "properties": {"norad_id": 66524, "name": "STARLINK-35687", "group": "last-30-days", "lat": 4.955462563686325, "lon": -80.53430017533678, "alt_km": 344.10161752775093, "timestamp": "2025-12-04T03:47:53.336270+00:00", "meta": {"OBJECT_NAME": "STARLINK-35687", "OBJECT_ID": "2025-265J", "EPOCH": "2025-12-03T20:00:01.999008", "MEAN_MOTION": 15.75195911, "ECCENTRICITY": 0.0001385, "INCLINATION": 42.9997, "RA_OF_ASC_NODE": 106.7765, "ARG_OF_PERICENTER": 278.103, "MEAN_ANOMALY": 210.0144, "EPHEMERIS_TYPE": 0, "CLASSIFICATION_TYPE": "U", "NORAD_CAT_ID": 66524, "ELEMENT_SET_NO": 999, "REV_AT_EPOCH": 356, "BSTAR": -0.0022557, "MEAN_MOTION_DOT": -0.00335844, "MEAN_MOTION_DDOT": 0}, "tle": {"line1": "1 66524U 25265J   25337.83335647 -.00335844  00000+0 -22557-2 0  9993", "line2": "2 66524  42.9997 106.7765 0001385 278.1030 210.0144 15.75195911  3565"}}, "geometry": {"type": "Point", "coordinates": [-80.53430017533678, 4.955462563686325]}}, {"type": "Feature", "properties": {"norad_id": 66525, "name": "STARLINK-35975", "group": "last-30-days", "lat": 3.655624461849173, "lon": -79.13134039147404, "alt_km": 343.99836923225575, "timestamp": "2025-12-04T03:47:53.336280+00:00", "meta": {"OBJECT_NAME": "STARLINK-35975", "OBJECT_ID": "2025-265K", "EPOCH": "2025-12-03T20:00:01.999008", "MEAN_MOTION": 15.75182389, "ECCENTRICITY": 0.0001274, "INCLINATION": 42.9997, "RA_OF_ASC_NODE": 106.7719, "ARG_OF_PERICENTER": 263.9629, "MEAN_ANOMALY": 226.0719, "EPHEMERIS_TYPE": 0, "CLASSIFICATION_TYPE": "U", "NORAD_CAT_ID": 66525, "ELEMENT_SET_NO": 999, "REV_AT_EPOCH": 356, "BSTAR": -0.0020795, "MEAN_MOTION_DOT": -0.00310383, "MEAN_MOTION_DDOT": 0}, "tle": {"line1": "1 66525U 25265K   25337.83335647 -.00310383  00000+0 -20795-2 0  9997", "line2": "2 66525  42.9997 106.7719 0001274 263.9629 226.0719 15.75182389  3568"}}, "geometry": {"type": "Point", "coordinates": [-79.13134039147404, 3.655624461849173]}}, {"type": "Feature", "properties": {"norad_id": 66526, "name": "STARLINK-35932", "group": "last-30-days", "lat": 2.3534582886826136, "lon": -77.73236624782236, "alt_km": 344.3773097938565, "timestamp": "2025-12-04T03:47:53.336289+00:00", "meta": {"OBJECT_NAME": "STARLINK-35932", "OBJECT_ID": "2025-265L", "EPOCH": "2025-12-03T20:00:01.999008", "MEAN_MOTION": 15.75227357, "ECCENTRICITY": 0.0001786, "INCLINATION": 42.9998, "RA_OF_ASC_NODE": 106.7673, "ARG_OF_PERICENTER": 273.4262, "MEAN_ANOMALY": 218.5065, "EPHEMERIS_TYPE": 0, "CLASSIFICATION_TYPE": "U", "NORAD_CAT_ID": 66526, "ELEMENT_SET_NO": 999, "REV_AT_EPOCH": 345, "BSTAR": -0.0026239, "MEAN_MOTION_DOT": -0.00388752, "MEAN_MOTION_DDOT": 0}, "tle": {"line1": "1 66526U 25265L   25337.83335647 -.00388752  00000+0 -26239-2 0  9992", "line2": "2 66526  42.9998 106.7673 0001786 273.4262 218.5065 15.75227357  3459"}}, "geometry": {"type": "Point", "coordinates": [-77.73236624782236, 2.3534582886826136]}}, {"type": "Feature", "properties": {"norad_id": 66527, "name": "STARLINK-35935", "group": "last-30-days", "lat": 1.05412109173496, "lon": -76.34047551077057, "alt_km": 344.4144268089094, "timestamp": "2025-12-04T03:47:53.336299+00:00", "meta": {"OBJECT_NAME": "STARLINK-35935", "OBJECT_ID": "2025-265M", "EPOCH": "2025-12-03T20:00:01.999008", "MEAN_MOTION": 15.75318812, "ECCENTRICITY": 5.85e-05, "INCLINATION": 42.9997, "RA_OF_ASC_NODE": 106.763, "ARG_OF_PERICENTER": 303.9761, "MEAN_ANOMALY": 189.7519, "EPHEMERIS_TYPE": 0, "CLASSIFICATION_TYPE": "U", "NORAD_CAT_ID": 66527, "ELEMENT_SET_NO": 999, "REV_AT_EPOCH": 356, "BSTAR": -0.0028031, "MEAN_MOTION_DOT": -0.00415527, "MEAN_MOTION_DDOT": 0}, "tle": {"line1": "1 66527U 25265M   25337.83335647 -.00415527  00000+0 -28031-2 0  9996", "line2": "2 66527  42.9997 106.7630 0000585 303.9761 189.7519 15.75318812  3563"}}, "geometry": {"type": "Point", "coordinates": [-76.34047551077057, 1.05412109173496]}}, {"type": "Feature", "properties": {"norad_id": 66528, "name": "STARLINK-35928", "group": "last-30-days", "lat": -0.2636425868844762, "lon": -74.93104219702487, "alt_km": 344.3652188232454, "timestamp": "2025-12-04T03:47:53.336309+00:00", "meta": {"OBJECT_NAME": "STARLINK-35928", "OBJECT_ID": "2025-265N", "EPOCH": "2025-12-03T20:00:01.999008", "MEAN_MOTION": 15.75212737, "ECCENTRICITY": 0.000126, "INCLINATION": 42.9998, "RA_OF_ASC_NODE": 106.7578, "ARG_OF_PERICENTER": 259.1857, "MEAN_ANOMALY": 236.5849, "EPHEMERIS_TYPE": 0, "CLASSIFICATION_TYPE": "U", "NORAD_CAT_ID": 66528, "ELEMENT_SET_NO": 999, "REV_AT_EPOCH": 356, "BSTAR": -0.0024092, "MEAN_MOTION_DOT": -0.00357986, "MEAN_MOTION_DDOT": 0}, "tle": {"line1": "1 66528U 25265N   25337.83335647 -.00357986  00000+0 -24092-2 0  9994", "line2": "2 66528  42.9998 106.7578 0001260 259.1857 236.5849 15.75212737  3561"}}, "geometry": {"type": "Point", "coordinates": [-74.93104219702487, -0.2636425868844762]}}, {"type": "Feature", "properties": {"norad_id": 66529, "name": "STARLINK-35933", "group": "last-30-days", "lat": -1.5589067458260448, "lon": -73.54527607539241, "alt_km": 344.64955458992426, "timestamp": "2025-12-04T03:47:53.336323+00:00", "meta": {"OBJECT_NAME": "STARLINK-35933", "OBJECT_ID": "2025-265P", "EPOCH": "2025-12-03T20:00:01.999008", "MEAN_MOTION": 15.75150885, "ECCENTRICITY": 0.0001402, "INCLINATION": 42.9997, "RA_OF_ASC_NODE": 106.7528, "ARG_OF_PERICENTER": 268.4384, "MEAN_ANOMALY": 229.2703, "EPHEMERIS_TYPE": 0, "CLASSIFICATION_TYPE": "U", "NORAD_CAT_ID": 66529, "ELEMENT_SET_NO": 999, "REV_AT_EPOCH": 356, "BSTAR": -0.0017949, "MEAN_MOTION_DOT": -0.00268897, "MEAN_MOTION_DDOT": 0}, "tle": {"line1": "1 66529U 25265P   25337.83335647 -.00268897  00000+0 -17949-2 0  9990", "line2": "2 66529  42.9997 106.7528 0001402 268.4384 229.2703 15.75150885  3565"}}, "geometry": {"type": "Point", "coordinates": [-73.54527607539241, -1.5589067458260448]}}]}